[Satellite]
VERSION=1.1
NAME=FENGYUN 2D
NICKNAME=FENGYUN 2D
TLE1=1 29640U 06053A   15054.81253840 -.00000226  00000-0  10000-3 0  9996
TLE2=2 29640   2.8616  68.8419 0001149 104.7029 358.9028  1.00273540 30134
